start=new Date('2022-06-26T00:00:00.000Z').valueOf();
sats=[{"MEAN_ANOMALY":"133.9315","APOAPSIS":"541.060","MEAN_MOTION_DDOT":"0.0000000000000","GP_ID":"206858047","ECCENTRICITY":"0.00018890","OBJECT_NAME":"STARLINK-3705","CLASSIFICATION_TYPE":"U","REF_FRAME":"TEME","TLE_LINE1":"1 52103U 22029R   22176.91667824  .00008585  00000-0  55684-3 0  9994","MEAN_ELEMENT_THEORY":"SGP4","SEMIMAJOR_AXIS":"6917.888","COUNTRY_CODE":"US","OBJECT_ID":"2022-029R","MEAN_MOTION_DOT":"0.00008585","SITE":"AFETR","INCLINATION":"53.2167","DECAY_DATE":null,"FILE":"3502557","TLE_LINE2":"2 52103  53.2167  31.9583 0001889  51.0767 133.9315 15.08837531  1308","OBJECT_TYPE":"PAYLOAD","CENTER_NAME":"EARTH","MEAN_MOTION":"15.08837531","ELEMENT_SET_NO":"999","EPHEMERIS_TYPE":"0","RA_OF_ASC_NODE":"31.9583","BSTAR":"0.00055684000000","NORAD_CAT_ID":"52103","EPOCH":"2022-06-25T22:00:00.999936","PERIAPSIS":"538.446","REV_AT_EPOCH":"130","ARG_OF_PERICENTER":"51.0767","RCS_SIZE":"LARGE","LAUNCH_DATE":"2022-03-19","PERIOD":"95.438","TIME_SYSTEM":"UTC"},{"MEAN_MOTION":"15.08836112","CENTER_NAME":"EARTH","ELEMENT_SET_NO":"999","TLE_LINE2":"2 52105  53.2153  31.9555 0001838  54.7052 165.1425 15.08836112  1308","OBJECT_TYPE":"PAYLOAD","FILE":"3502557","DECAY_DATE":null,"RCS_SIZE":"LARGE","TIME_SYSTEM":"UTC","LAUNCH_DATE":"2022-03-19","PERIOD":"95.438","PERIAPSIS":"538.486","ARG_OF_PERICENTER":"54.7052","REV_AT_EPOCH":"130","RA_OF_ASC_NODE":"31.9555","EPHEMERIS_TYPE":"0","NORAD_CAT_ID":"52105","EPOCH":"2022-06-25T22:00:00.999936","BSTAR":"0.00072493000000","CLASSIFICATION_TYPE":"U","OBJECT_NAME":"STARLINK-3706","MEAN_MOTION_DDOT":"0.0000000000000","ECCENTRICITY":"0.00018380","GP_ID":"206857841","MEAN_ANOMALY":"165.1425","APOAPSIS":"541.029","SITE":"AFETR","INCLINATION":"53.2153","MEAN_MOTION_DOT":"0.00011267","COUNTRY_CODE":"US","SEMIMAJOR_AXIS":"6917.892","TLE_LINE1":"1 52105U 22029T   22176.91667824  .00011267  00000-0  72493-3 0  9994","MEAN_ELEMENT_THEORY":"SGP4","OBJECT_ID":"2022-029T","REF_FRAME":"TEME"},{"MEAN_MOTION_DDOT":"0.0000000000000","ECCENTRICITY":"0.00016560","GP_ID":"206858497","MEAN_ANOMALY":"39.2236","APOAPSIS":"540.869","CLASSIFICATION_TYPE":"U","OBJECT_NAME":"STARLINK-3670","COUNTRY_CODE":"US","SEMIMAJOR_AXIS":"6917.858","MEAN_ELEMENT_THEORY":"SGP4","TLE_LINE1":"1 52106U 22029U   22176.91667824 -.00003025  00000-0 -17199-3 0  9992","OBJECT_ID":"2022-029U","REF_FRAME":"TEME","SITE":"AFETR","INCLINATION":"53.2182","MEAN_MOTION_DOT":"-0.00003025","FILE":"3502557","DECAY_DATE":null,"MEAN_MOTION":"15.08847219","CENTER_NAME":"EARTH","ELEMENT_SET_NO":"999","TLE_LINE2":"2 52106  53.2182  41.9426 0001656  70.7850  39.2236 15.08847219  1302","OBJECT_TYPE":"PAYLOAD","PERIAPSIS":"538.578","REV_AT_EPOCH":"130","ARG_OF_PERICENTER":"70.7850","EPHEMERIS_TYPE":"0","RA_OF_ASC_NODE":"41.9426","NORAD_CAT_ID":"52106","EPOCH":"2022-06-25T22:00:00.999936","BSTAR":"-0.00017199000000","RCS_SIZE":"LARGE","TIME_SYSTEM":"UTC","LAUNCH_DATE":"2022-03-19","PERIOD":"95.437"},{"OBJECT_NAME":"STARLINK-3658","CLASSIFICATION_TYPE":"U","MEAN_ANOMALY":"205.9824","APOAPSIS":"541.083","MEAN_MOTION_DDOT":"0.0000000000000","GP_ID":"206858291","ECCENTRICITY":"0.00020080","MEAN_MOTION_DOT":"-0.00031477","SITE":"AFETR","INCLINATION":"53.2141","REF_FRAME":"TEME","TLE_LINE1":"1 52107U 22029V   22176.91667824 -.00031477  00000-0 -19673-2 0  9993","MEAN_ELEMENT_THEORY":"SGP4","SEMIMAJOR_AXIS":"6917.829","COUNTRY_CODE":"US","OBJECT_ID":"2022-029V","TLE_LINE2":"2 52107  53.2141  31.9539 0002008  39.0545 205.9824 15.08856776  1306","OBJECT_TYPE":"PAYLOAD","CENTER_NAME":"EARTH","MEAN_MOTION":"15.08856776","ELEMENT_SET_NO":"999","DECAY_DATE":null,"FILE":"3502557","RCS_SIZE":"LARGE","PERIOD":"95.436","LAUNCH_DATE":"2022-03-19","TIME_SYSTEM":"UTC","EPHEMERIS_TYPE":"0","RA_OF_ASC_NODE":"31.9539","BSTAR":"-0.00196730000000","NORAD_CAT_ID":"52107","EPOCH":"2022-06-25T22:00:00.999936","PERIAPSIS":"538.305","REV_AT_EPOCH":"130","ARG_OF_PERICENTER":"39.0545"},{"ECCENTRICITY":"0.00018520","GP_ID":"206858394","MEAN_MOTION_DDOT":"0.0000000000000","APOAPSIS":"541.062","MEAN_ANOMALY":"158.0138","CLASSIFICATION_TYPE":"U","OBJECT_NAME":"STARLINK-3698","OBJECT_ID":"2022-029W","SEMIMAJOR_AXIS":"6917.916","COUNTRY_CODE":"US","TLE_LINE1":"1 52108U 22029W   22176.91667824 -.00007274  00000-0 -43949-3 0  9996","MEAN_ELEMENT_THEORY":"SGP4","REF_FRAME":"TEME","INCLINATION":"53.2160","SITE":"AFETR","MEAN_MOTION_DOT":"-0.00007274","FILE":"3502557","DECAY_DATE":null,"ELEMENT_SET_NO":"999","MEAN_MOTION":"15.08828391","CENTER_NAME":"EARTH","OBJECT_TYPE":"PAYLOAD","TLE_LINE2":"2 52108  53.2160  31.9571 0001852  47.0478 158.0138 15.08828391  1302","ARG_OF_PERICENTER":"47.0478","PERIAPSIS":"538.500","REV_AT_EPOCH":"130","EPOCH":"2022-06-25T22:00:00.999936","NORAD_CAT_ID":"52108","BSTAR":"-0.00043949000000","EPHEMERIS_TYPE":"0","RA_OF_ASC_NODE":"31.9571","LAUNCH_DATE":"2022-03-19","PERIOD":"95.438","TIME_SYSTEM":"UTC","RCS_SIZE":"LARGE"},{"DECAY_DATE":null,"FILE":"3502557","OBJECT_TYPE":"PAYLOAD","TLE_LINE2":"2 52110  53.2152  31.9554 0002059  48.3772 176.6392 15.08834869  1303","ELEMENT_SET_NO":"999","MEAN_MOTION":"15.08834869","CENTER_NAME":"EARTH","EPOCH":"2022-06-25T22:00:00.999936","NORAD_CAT_ID":"52110","BSTAR":"0.00074205000000","EPHEMERIS_TYPE":"0","RA_OF_ASC_NODE":"31.9554","ARG_OF_PERICENTER":"48.3772","PERIAPSIS":"538.337","REV_AT_EPOCH":"130","LAUNCH_DATE":"2022-03-19","TIME_SYSTEM":"UTC","PERIOD":"95.438","RCS_SIZE":"LARGE","APOAPSIS":"541.185","MEAN_ANOMALY":"176.6392","ECCENTRICITY":"0.00020590","GP_ID":"206858188","MEAN_MOTION_DDOT":"0.0000000000000","OBJECT_NAME":"STARLINK-3687","CLASSIFICATION_TYPE":"U","REF_FRAME":"TEME","OBJECT_ID":"2022-029Y","COUNTRY_CODE":"US","SEMIMAJOR_AXIS":"6917.896","MEAN_ELEMENT_THEORY":"SGP4","TLE_LINE1":"1 52110U 22029Y   22176.91667824  .00011540  00000-0  74205-3 0  9997","MEAN_MOTION_DOT":"0.00011540","INCLINATION":"53.2152","SITE":"AFETR"},{"DECAY_DATE":null,"FILE":"3502557","OBJECT_TYPE":"PAYLOAD","TLE_LINE2":"2 52111  53.2129  31.9517 0001925  53.1389 251.8794 15.08840948  1303","ELEMENT_SET_NO":"999","CENTER_NAME":"EARTH","MEAN_MOTION":"15.08840948","BSTAR":"0.00075235000000","EPOCH":"2022-06-25T22:00:00.999936","NORAD_CAT_ID":"52111","EPHEMERIS_TYPE":"0","RA_OF_ASC_NODE":"31.9517","PERIAPSIS":"538.411","ARG_OF_PERICENTER":"53.1389","REV_AT_EPOCH":"130","PERIOD":"95.437","LAUNCH_DATE":"2022-03-19","TIME_SYSTEM":"UTC","RCS_SIZE":"LARGE","APOAPSIS":"541.074","MEAN_ANOMALY":"251.8794","GP_ID":"206858151","ECCENTRICITY":"0.00019250","MEAN_MOTION_DDOT":"0.0000000000000","OBJECT_NAME":"STARLINK-3708","CLASSIFICATION_TYPE":"U","REF_FRAME":"TEME","OBJECT_ID":"2022-029Z","TLE_LINE1":"1 52111U 22029Z   22176.91667824  .00011706  00000-0  75235-3 0  9996","MEAN_ELEMENT_THEORY":"SGP4","COUNTRY_CODE":"US","SEMIMAJOR_AXIS":"6917.877","MEAN_MOTION_DOT":"0.00011706","INCLINATION":"53.2129","SITE":"AFETR"},{"DECAY_DATE":null,"FILE":"3502557","OBJECT_TYPE":"PAYLOAD","TLE_LINE2":"2 52112  53.2132  31.9526 0002094  50.9267 214.1068 15.08839231  1305","ELEMENT_SET_NO":"999","MEAN_MOTION":"15.08839231","CENTER_NAME":"EARTH","EPOCH":"2022-06-25T22:00:00.999936","NORAD_CAT_ID":"52112","BSTAR":"0.00078482000000","EPHEMERIS_TYPE":"0","RA_OF_ASC_NODE":"31.9526","ARG_OF_PERICENTER":"50.9267","PERIAPSIS":"538.299","REV_AT_EPOCH":"130","PERIOD":"95.438","LAUNCH_DATE":"2022-03-19","TIME_SYSTEM":"UTC","RCS_SIZE":"LARGE","APOAPSIS":"541.196","MEAN_ANOMALY":"214.1068","ECCENTRICITY":"0.00020940","GP_ID":"206857945","MEAN_MOTION_DDOT":"0.0000000000000","OBJECT_NAME":"STARLINK-3734","CLASSIFICATION_TYPE":"U","REF_FRAME":"TEME","OBJECT_ID":"2022-029AA","COUNTRY_CODE":"US","SEMIMAJOR_AXIS":"6917.883","MEAN_ELEMENT_THEORY":"SGP4","TLE_LINE1":"1 52112U 22029AA  22176.91667824  .00012224  00000-0  78482-3 0  9990","MEAN_MOTION_DOT":"0.00012224","INCLINATION":"53.2132","SITE":"AFETR"},{"PERIOD":"95.439","LAUNCH_DATE":"2022-03-19","TIME_SYSTEM":"UTC","RCS_SIZE":"LARGE","PERIAPSIS":"538.409","REV_AT_EPOCH":"130","ARG_OF_PERICENTER":"49.9605","EPOCH":"2022-06-25T22:00:00.999936","NORAD_CAT_ID":"52113","BSTAR":"0.00054827000000","RA_OF_ASC_NODE":"31.9411","EPHEMERIS_TYPE":"0","ELEMENT_SET_NO":"999","MEAN_MOTION":"15.08824762","CENTER_NAME":"EARTH","OBJECT_TYPE":"PAYLOAD","TLE_LINE2":"2 52113  53.2156  31.9411 0001999  49.9605 295.0831 15.08824762  1301","FILE":"3502557","DECAY_DATE":null,"INCLINATION":"53.2156","SITE":"AFETR","MEAN_MOTION_DOT":"0.00008445","OBJECT_ID":"2022-029AB","COUNTRY_CODE":"US","SEMIMAJOR_AXIS":"6917.927","TLE_LINE1":"1 52113U 22029AB  22176.91667824  .00008445  00000-0  54827-3 0  9998","MEAN_ELEMENT_THEORY":"SGP4","REF_FRAME":"TEME","CLASSIFICATION_TYPE":"U","OBJECT_NAME":"STARLINK-3736","ECCENTRICITY":"0.00019990","GP_ID":"206858048","MEAN_MOTION_DDOT":"0.0000000000000","APOAPSIS":"541.175","MEAN_ANOMALY":"295.0831"},{"FILE":"3502557","DECAY_DATE":null,"ELEMENT_SET_NO":"999","CENTER_NAME":"EARTH","MEAN_MOTION":"15.08824510","OBJECT_TYPE":"PAYLOAD","TLE_LINE2":"2 52114  53.2138  31.9528 0001972  48.9851 236.0795 15.08824510  1309","ARG_OF_PERICENTER":"48.9851","PERIAPSIS":"538.429","REV_AT_EPOCH":"130","BSTAR":"0.00080073000000","EPOCH":"2022-06-25T22:00:00.999936","NORAD_CAT_ID":"52114","EPHEMERIS_TYPE":"0","RA_OF_ASC_NODE":"31.9528","LAUNCH_DATE":"2022-03-19","PERIOD":"95.439","TIME_SYSTEM":"UTC","RCS_SIZE":"LARGE","GP_ID":"206857842","ECCENTRICITY":"0.00019720","MEAN_MOTION_DDOT":"0.0000000000000","APOAPSIS":"541.157","MEAN_ANOMALY":"236.0795","CLASSIFICATION_TYPE":"U","OBJECT_NAME":"STARLINK-3737","OBJECT_ID":"2022-029AC","TLE_LINE1":"1 52114U 22029AC  22176.91667824  .00012473  00000-0  80073-3 0  9997","MEAN_ELEMENT_THEORY":"SGP4","COUNTRY_CODE":"US","SEMIMAJOR_AXIS":"6917.928","REF_FRAME":"TEME","INCLINATION":"53.2138","SITE":"AFETR","MEAN_MOTION_DOT":"0.00012473"}];
